[{"OBJECT_NAME":"STARLINK-4521","OBJECT_ID":"2022-097D","EPOCH":"2026-03-09T10:44:18.339936","MEAN_MOTION":15.08836625,"ECCENTRICITY":0.00014815,"INCLINATION":53.2173,"RA_OF_ASC_NODE":125.2078,"ARG_OF_PERICENTER":98.0756,"MEAN_ANOMALY":262.0405,"EPHEMERIS_TYPE":0,"CLASSIFICATION_TYPE":"U","NORAD_CAT_ID":53391,"ELEMENT_SET_NO":999,"REV_AT_EPOCH":19863,"BSTAR":-2.4584613e-5,"MEAN_MOTION_DOT":-6.79e-6,"MEAN_MOTION_DDOT":0},{"OBJECT_NAME":"OBJECT H","OBJECT_ID":"2017-042H","EPOCH":"2026-03-09T21:54:40.929408","MEAN_MOTION":15.07257911,"ECCENTRICITY":0.00117342,"INCLINATION":97.4058,"RA_OF_ASC_NODE":233.05,"ARG_OF_PERICENTER":93.954,"MEAN_ANOMALY":266.303,"EPHEMERIS_TYPE":0,"CLASSIFICATION_TYPE":"U","NORAD_CAT_ID":42832,"ELEMENT_SET_NO":999,"REV_AT_EPOCH":47198,"BSTAR":0.00041037265,"MEAN_MOTION_DOT":6.138e-5,"MEAN_MOTION_DDOT":0}]
